{"type": "FeatureCollection", "features": [ {"type": "Feature", "properties": {"norad_id": 31516, "name": "FENGYUN 1C DEB", "group": "fengyun-1c-debris", "lat": 4.49308599337152, "lon": 92.58280867928586, "alt_km": 824.6711092032192, "timestamp": "2025-12-03T10:52:57.736684+00:00", "meta": {"OBJECT_NAME": "FENGYUN 1C DEB", "OBJECT_ID": "1999-025BXF", "EPOCH": "2025-12-01T06:46:22.370304", "MEAN_MOTION": 14.25365436, "ECCENTRICITY": 0.0148139, "INCLINATION": 98.832, "RA_OF_ASC_NODE": 91.0964, "ARG_OF_PERICENTER": 271.949, "MEAN_ANOMALY": 115.971, "EPHEMERIS_TYPE": 0, "CLASSIFICATION_TYPE": "U", "NORAD_CAT_ID": 31516, "ELEMENT_SET_NO": 999, "REV_AT_EPOCH": 96329, "BSTAR": 0.00049633, "MEAN_MOTION_DOT": 1.264e-05, "MEAN_MOTION_DDOT": 0}, "tle": {"line1": "1 31516U 99025BXF 25335.28220336  .00001264  00000+0  49633-3 0  9995", "line2": "2 31516  98.8320  91.0964 0148139 271.9490 115.9710 14.25365436963297"}}, "geometry": {"type": "Point", "coordinates": [92.58280867928586, 4.49308599337152]}}, {"type": "Feature", "properties": {"norad_id": 31519, "name": "FENGYUN 1C DEB", "group": "fengyun-1c-debris", "lat": -9.108477228459153, "lon": 152.85801734956144, "alt_km": 812.1494662321111, "timestamp": "2025-12-03T10:52:57.736696+00:00", "meta": {"OBJECT_NAME": "FENGYUN 1C DEB", "OBJECT_ID": "1999-025BXJ", "EPOCH": "2025-12-02T05:18:38.960928", "MEAN_MOTION": 14.23363236, "ECCENTRICITY": 0.0051768, "INCLINATION": 98.5732, "RA_OF_ASC_NODE": 333.0436, "ARG_OF_PERICENTER": 273.8971, "MEAN_ANOMALY": 85.629, "EPHEMERIS_TYPE": 0, "CLASSIFICATION_TYPE": "U", "NORAD_CAT_ID": 31519, "ELEMENT_SET_NO": 999, "REV_AT_EPOCH": 64615, "BSTAR": 0.00061131, "MEAN_MOTION_DOT": 1.362e-05, "MEAN_MOTION_DDOT": 0}, "tle": {"line1": "1 31519U 99025BXJ 25336.22128427  .00001362  00000+0  61131-3 0  9997", "line2": "2 31519  98.5732 333.0436 0051768 273.8971  85.6290 14.23363236646156"}}, "geometry": {"type": "Point", "coordinates": [152.85801734956144, -9.108477228459153]}}, {"type": "Feature", "properties": {"norad_id": 31522, "name": "FENGYUN 1C DEB", "group": "fengyun-1c-debris", "lat": -12.253996202632507, "lon": 174.14219150309168, "alt_km": 858.6337879234579, "timestamp": "2025-12-03T10:52:57.736706+00:00", "meta": {"OBJECT_NAME": "FENGYUN 1C DEB", "OBJECT_ID": "1999-025BXM", "EPOCH": "2025-12-02T11:43:53.698944", "MEAN_MOTION": 14.03969195, "ECCENTRICITY": 0.00429805, "INCLINATION": 98.7082, "RA_OF_ASC_NODE": 355.1255, "ARG_OF_PERICENTER": 229.3974, "MEAN_ANOMALY": 130.3451, "EPHEMERIS_TYPE": 0, "CLASSIFICATION_TYPE": "U", "NORAD_CAT_ID": 31522, "ELEMENT_SET_NO": 999, "REV_AT_EPOCH": 94852, "BSTAR": 0.00086354754, "MEAN_MOTION_DOT": 1.334e-05, "MEAN_MOTION_DDOT": 0}, "tle": {"line1": "1 31522U 99025BXM 25336.48881596  .00001334  00000+0  86355-3 0  9996", "line2": "2 31522  98.7082 355.1255 0042980 229.3974 130.3451 14.03969195948526"}}, "geometry": {"type": "Point", "coordinates": [174.14219150309168, -12.253996202632507]}}, {"type": "Feature", "properties": {"norad_id": 31523, "name": "FENGYUN 1C DEB", "group": "fengyun-1c-debris", "lat": 65.71448948338886, "lon": 5.208369360940688, "alt_km": 829.3312855705544, "timestamp": "2025-12-03T10:52:57.736717+00:00", "meta": {"OBJECT_NAME": "FENGYUN 1C DEB", "OBJECT_ID": "1999-025BXN", "EPOCH": "2025-12-03T02:13:03.454176", "MEAN_MOTION": 14.1385847, "ECCENTRICITY": 0.0039138, "INCLINATION": 98.759, "RA_OF_ASC_NODE": 24.8343, "ARG_OF_PERICENTER": 136.9105, "MEAN_ANOMALY": 254.1577, "EPHEMERIS_TYPE": 0, "CLASSIFICATION_TYPE": "U", "NORAD_CAT_ID": 31523, "ELEMENT_SET_NO": 999, "REV_AT_EPOCH": 95871, "BSTAR": 3.7307e-05, "MEAN_MOTION_DOT": 2.8e-07, "MEAN_MOTION_DDOT": 0}, "tle": {"line1": "1 31523U 99025BXN 25337.09240109  .00000028  00000+0  37307-4 0  9997", "line2": "2 31523  98.7590  24.8343 0039138 136.9105 254.1577 14.13858470958719"}}, "geometry": {"type": "Point", "coordinates": [5.208369360940688, 65.71448948338886]}}, {"type": "Feature", "properties": {"norad_id": 31527, "name": "FENGYUN 1C DEB", "group": "fengyun-1c-debris", "lat": -78.53011901355718, "lon": -165.1465372157784, "alt_km": 934.8995350658024, "timestamp": "2025-12-03T10:52:57.736727+00:00", "meta": {"OBJECT_NAME": "FENGYUN 1C DEB", "OBJECT_ID": "1999-025BXS", "EPOCH": "2025-11-28T16:57:37.524384", "MEAN_MOTION": 13.23385857, "ECCENTRICITY": 0.04495652, "INCLINATION": 98.8931, "RA_OF_ASC_NODE": 140.2922, "ARG_OF_PERICENTER": 334.6734, "MEAN_ANOMALY": 23.2945, "EPHEMERIS_TYPE": 0, "CLASSIFICATION_TYPE": "U", "NORAD_CAT_ID": 31527, "ELEMENT_SET_NO": 999, "REV_AT_EPOCH": 90004, "BSTAR": 0.00062155533, "MEAN_MOTION_DOT": 4.13e-06, "MEAN_MOTION_DDOT": 0}, "tle": {"line1": "1 31527U 99025BXS 25332.70668431  .00000413  00000+0  62156-3 0  9993", "line2": "2 31527  98.8931 140.2922 0449565 334.6734  23.2945 13.23385857900044"}}, "geometry": {"type": "Point", "coordinates": [-165.1465372157784, -78.53011901355718]}}, {"type": "Feature", "properties": {"norad_id": 31531, "name": "FENGYUN 1C DEB", "group": "fengyun-1c-debris", "lat": 44.24478035993188, "lon": 14.216560689655761, "alt_km": 820.8964650770695, "timestamp": "2025-12-03T10:52:57.736738+00:00", "meta": {"OBJECT_NAME": "FENGYUN 1C DEB", "OBJECT_ID": "1999-025BXW", "EPOCH": "2025-12-02T21:17:34.759104", "MEAN_MOTION": 14.35533889, "ECCENTRICITY": 0.0244102, "INCLINATION": 98.3845, "RA_OF_ASC_NODE": 21.9246, "ARG_OF_PERICENTER": 298.1694, "MEAN_ANOMALY": 59.5027, "EPHEMERIS_TYPE": 0, "CLASSIFICATION_TYPE": "U", "NORAD_CAT_ID": 31531, "ELEMENT_SET_NO": 999, "REV_AT_EPOCH": 63793, "BSTAR": 0.0010385, "MEAN_MOTION_DOT": 4.144e-05, "MEAN_MOTION_DDOT": 0}, "tle": {"line1": "1 31531U 99025BXW 25336.88720786  .00004144  00000+0  10385-2 0  9994", "line2": "2 31531  98.3845  21.9246 0244102 298.1694  59.5027 14.35533889637933"}}, "geometry": {"type": "Point", "coordinates": [14.216560689655761, 44.24478035993188]}}, {"type": "Feature", "properties": {"norad_id": 31533, "name": "FENGYUN 1C DEB", "group": "fengyun-1c-debris", "lat": 63.7740386614561, "lon": 68.04815208494144, "alt_km": 800.1904094581487, "timestamp": "2025-12-03T10:52:57.736749+00:00", "meta": {"OBJECT_NAME": "FENGYUN 1C DEB", "OBJECT_ID": "1999-025BXY", "EPOCH": "2025-12-02T10:48:09.376992", "MEAN_MOTION": 14.27593289, "ECCENTRICITY": 0.00661534, "INCLINATION": 98.9605, "RA_OF_ASC_NODE": 228.3398, "ARG_OF_PERICENTER": 19.1557, "MEAN_ANOMALY": 341.2088, "EPHEMERIS_TYPE": 0, "CLASSIFICATION_TYPE": "U", "NORAD_CAT_ID": 31533, "ELEMENT_SET_NO": 999, "REV_AT_EPOCH": 65976, "BSTAR": 0.00054806996, "MEAN_MOTION_DOT": 1.334e-05, "MEAN_MOTION_DDOT": 0}, "tle": {"line1": "1 31533U 99025BXY 25336.45010853  .00001334  00000+0  54807-3 0  9992", "line2": "2 31533  98.9605 228.3398 0066153  19.1557 341.2088 14.27593289659767"}}, "geometry": {"type": "Point", "coordinates": [68.04815208494144, 63.7740386614561]}}, {"type": "Feature", "properties": {"norad_id": 31535, "name": "FENGYUN 1C DEB", "group": "fengyun-1c-debris", "lat": 66.00233345206065, "lon": 169.61054830016522, "alt_km": 825.0988805349252, "timestamp": "2025-12-03T10:52:57.736760+00:00", "meta": {"OBJECT_NAME": "FENGYUN 1C DEB", "OBJECT_ID": "1999-025BYA", "EPOCH": "2025-12-02T19:25:54.598080", "MEAN_MOTION": 14.28271502, "ECCENTRICITY": 0.0087286, "INCLINATION": 98.0356, "RA_OF_ASC_NODE": 187.5187, "ARG_OF_PERICENTER": 192.6029, "MEAN_ANOMALY": 167.2972, "EPHEMERIS_TYPE": 0, "CLASSIFICATION_TYPE": "U", "NORAD_CAT_ID": 31535, "ELEMENT_SET_NO": 999, "REV_AT_EPOCH": 71789, "BSTAR": 0.00092258, "MEAN_MOTION_DOT": 2.358e-05, "MEAN_MOTION_DDOT": 0}, "tle": {"line1": "1 31535U 99025BYA 25336.80965970  .00002358  00000+0  92258-3 0  9991", "line2": "2 31535  98.0356 187.5187 0087286 192.6029 167.2972 14.28271502717895"}}, "geometry": {"type": "Point", "coordinates": [169.61054830016522, 66.00233345206065]}}, {"type": "Feature", "properties": {"norad_id": 31536, "name": "FENGYUN 1C DEB", "group": "fengyun-1c-debris", "lat": 51.620516224418814, "lon": 75.49550915304188, "alt_km": 559.0231345770717, "timestamp": "2025-12-03T10:52:57.736770+00:00", "meta": {"OBJECT_NAME": "FENGYUN 1C DEB", "OBJECT_ID": "1999-025BYB", "EPOCH": "2025-12-02T04:33:41.322240", "MEAN_MOTION": 14.54098664, "ECCENTRICITY": 0.0294452, "INCLINATION": 98.2355, "RA_OF_ASC_NODE": 243.7138, "ARG_OF_PERICENTER": 177.3497, "MEAN_ANOMALY": 182.9347, "EPHEMERIS_TYPE": 0, "CLASSIFICATION_TYPE": "U", "NORAD_CAT_ID": 31536, "ELEMENT_SET_NO": 999, "REV_AT_EPOCH": 96104, "BSTAR": 0.0011132, "MEAN_MOTION_DOT": 8.368e-05, "MEAN_MOTION_DDOT": 0}, "tle": {"line1": "1 31536U 99025BYB 25336.19006160  .00008368  00000+0  11132-2 0  9999", "line2": "2 31536  98.2355 243.7138 0294452 177.3497 182.9347 14.54098664961045"}}, "geometry": {"type": "Point", "coordinates": [75.49550915304188, 51.620516224418814]}}, {"type": "Feature", "properties": {"norad_id": 31537, "name": "FENGYUN 1C DEB", "group": "fengyun-1c-debris", "lat": -13.7511680102054, "lon": -52.18571891856274, "alt_km": 1059.9289110331938, "timestamp": "2025-12-03T10:52:57.736780+00:00", "meta": {"OBJECT_NAME": "FENGYUN 1C DEB", "OBJECT_ID": "1999-025BYC", "EPOCH": "2025-12-01T15:41:22.536384", "MEAN_MOTION": 14.20074958, "ECCENTRICITY": 0.0349482, "INCLINATION": 99.2927, "RA_OF_ASC_NODE": 128.2172, "ARG_OF_PERICENTER": 355.9583, "MEAN_ANOMALY": 3.8786, "EPHEMERIS_TYPE": 0, "CLASSIFICATION_TYPE": "U", "NORAD_CAT_ID": 31537, "ELEMENT_SET_NO": 999, "REV_AT_EPOCH": 93124, "BSTAR": 0.0016093722, "MEAN_MOTION_DOT": 6.299e-05, "MEAN_MOTION_DDOT": 0}, "tle": {"line1": "1 31537U 99025BYC 25335.65373306  .00006299  00000+0  16094-2 0  9992", "line2": "2 31537  99.2927 128.2172 0349482 355.9583   3.8786 14.20074958931241"}}, "geometry": {"type": "Point", "coordinates": [-52.18571891856274, -13.7511680102054]}}]}